{
  "version": 1,
  "fetchedAt": "2026-06-17T01:49:57.093Z",
  "source": "celestrak-gp",
  "counts": {
    "station": 25,
    "satellite": 400,
    "debris": 250
  },
  "objects": [
    {
      "id": "48274",
      "name": "CSS (TIANHE)",
      "displayName": "中国空间站 天宫（天和核心舱）",
      "noradId": 48274,
      "line1": "1 48274U 21035A   26167.84906358  .00020239  00000+0  23909-3 0  9992",
      "line2": "2 48274  41.4698 324.0596 0007460  74.3419 285.8242 15.60797895293117",
      "category": "station",
      "highlight": true,
      "operator": "中国载人航天"
    },
    {
      "id": "66515",
      "name": "SZ-21 MODULE",
      "noradId": 66515,
      "line1": "1 66515U 25246C   26166.69531253  .00040520  00000+0  25047-3 0  9998",
      "line2": "2 66515  41.4723 316.6164 0006492 340.9855  19.0747 15.76287551 33504",
      "category": "station"
    },
    {
      "id": "31598",
      "name": "COSMO-SKYMED 1",
      "noradId": 31598,
      "line1": "1 31598U 07023A   26167.80082411  .00002229  00000+0  19848-3 0  9991",
      "line2": "2 31598  97.8842 359.6530 0001303 100.0369 260.0999 14.97097508 29739",
      "category": "satellite"
    },
    {
      "id": "31792",
      "name": "COSMOS 2428",
      "noradId": 31792,
      "line1": "1 31792U 07029A   26167.86050369 -.00000117  00000+0 -36843-4 0  9997",
      "line2": "2 31792  70.9369 355.1636 0007137 135.5925 224.5769 14.12928171978101",
      "category": "satellite"
    },
    {
      "id": "31793",
      "name": "SL-16 R/B",
      "noradId": 31793,
      "line1": "1 31793U 07029B   26167.76328722  .00000117  00000+0  85630-4 0  9994",
      "line2": "2 31793  70.9768 324.1191 0002318 261.6537 196.7820 14.14854962979380",
      "category": "satellite"
    },
    {
      "id": "33504",
      "name": "KORONAS-FOTON",
      "noradId": 33504,
      "line1": "1 33504U 09003A   26167.75480705  .00009057  00000+0  18626-3 0  9991",
      "line2": "2 33504  82.4283 172.7106 0011631 148.9021 211.2918 15.45715063961035",
      "category": "satellite"
    },
    {
      "id": "37731",
      "name": "CZ-2C R/B",
      "noradId": 37731,
      "line1": "1 37731U 11030B   26167.77097476  .00001077  00000+0  14110-3 0  9999",
      "line2": "2 37731  97.8655 123.1646 0053091  29.3113  32.7821 14.81470666804764",
      "category": "satellite"
    },
    {
      "id": "38341",
      "name": "H-2A R/B",
      "noradId": 38341,
      "line1": "1 38341U 12025E   26167.68863912  .00002693  00000+0  24355-3 0  9995",
      "line2": "2 38341  98.4831 142.7932 0043673 350.9948   9.0483 14.95718425763010",
      "category": "satellite"
    },
    {
      "id": "39358",
      "name": "SHIJIAN-16 (SJ-16)",
      "noradId": 39358,
      "line1": "1 39358U 13057A   26167.90426023  .00000959  00000+0  95829-4 0  9991",
      "line2": "2 39358  74.9725 357.2191 0016839 231.4892 128.4787 14.92606511686303",
      "category": "satellite"
    },
    {
      "id": "39679",
      "name": "SL-4 R/B",
      "noradId": 39679,
      "line1": "1 39679U 14021B   26167.61017988  .00008759  00000+0  18350-3 0  9992",
      "line2": "2 39679  51.6035 213.5984 0091248 103.9001 257.2154 15.41943923671524",
      "category": "satellite"
    },
    {
      "id": "39766",
      "name": "ALOS-2",
      "noradId": 39766,
      "line1": "1 39766U 14029A   26167.86863905  .00000761  00000+0  10884-3 0  9991",
      "line2": "2 39766  97.9226 265.0362 0001617  90.7557 269.3840 14.79468481651534",
      "category": "satellite"
    },
    {
      "id": "41038",
      "name": "YAOGAN-29",
      "noradId": 41038,
      "line1": "1 41038U 15069A   26167.84047205  .00000619  00000+0  82697-4 0  9990",
      "line2": "2 41038  98.0023 196.4725 0002622  55.7722 304.3739 14.83085621570575",
      "category": "satellite"
    },
    {
      "id": "41337",
      "name": "ASTRO-H (HITOMI)",
      "noradId": 41337,
      "line1": "1 41337U 16012A   26167.43952971  .00002094  00000+0  11826-3 0  9995",
      "line2": "2 41337  30.9997  79.0158 0009774 246.4113 113.5499 15.10508022567177",
      "category": "satellite"
    },
    {
      "id": "42758",
      "name": "HXMT (HUIYAN)",
      "noradId": 42758,
      "line1": "1 42758U 17034A   26167.73967950  .00002236  00000+0  11695-3 0  9996",
      "line2": "2 42758  43.0125 185.5330 0030528 144.2185 216.0717 15.18475330497596",
      "category": "satellite"
    },
    {
      "id": "43641",
      "name": "SAOCOM 1A",
      "noradId": 43641,
      "line1": "1 43641U 18076A   26167.79848282  .00000135  00000+0  23522-4 0  9996",
      "line2": "2 43641  97.8875 354.5525 0001566  79.6696 280.4694 14.82147183416041",
      "category": "satellite"
    },
    {
      "id": "43682",
      "name": "H-2A R/B",
      "noradId": 43682,
      "line1": "1 43682U 18084L   26167.80444861  .00016992  00000+0  35711-3 0  9997",
      "line2": "2 43682  98.8574  46.6107 0023539  41.9564 318.3478 15.45142029421061",
      "category": "satellite"
    },
    {
      "id": "46265",
      "name": "SAOCOM 1B",
      "noradId": 46265,
      "line1": "1 46265U 20059A   26167.82963311  .00000700  00000+0  94551-4 0  9998",
      "line2": "2 46265  97.8879 353.6784 0001643  84.7794 275.3607 14.82148324313433",
      "category": "satellite"
    },
    {
      "id": "48865",
      "name": "COSMOS 2550",
      "noradId": 48865,
      "line1": "1 48865U 21056A   26167.89367038  .00007193  00000+0  22424-3 0  9997",
      "line2": "2 48865  67.1434 100.7939 0008385 268.5792  91.4402 15.33831761278678",
      "category": "satellite"
    },
    {
      "id": "52794",
      "name": "CZ-2C R/B",
      "noradId": 52794,
      "line1": "1 52794U 22058K   26167.28244567  .00030822  00000+0  34419-3 0  9992",
      "line2": "2 52794  50.1832 168.2256 0032543 264.2442  95.4821 15.61795532225506",
      "category": "satellite"
    },
    {
      "id": "54039",
      "name": "CZ-2C R/B",
      "noradId": 54039,
      "line1": "1 54039U 22132E   26167.77038426  .00048706  00000+0  37875-3 0  9997",
      "line2": "2 54039  97.2897 174.7757 0016056  85.6762 274.6336 15.71454106205883",
      "category": "satellite"
    },
    {
      "id": "54149",
      "name": "GSLV R/B",
      "noradId": 54149,
      "line1": "1 54149U 22138AN  26167.85043403  .00002544  00000+0  21611-3 0  9996",
      "line2": "2 54149  87.3806 133.0973 0022817 144.7444 215.5303 14.97256158198769",
      "category": "satellite"
    },
    {
      "id": "57800",
      "name": "XRISM",
      "noradId": 57800,
      "line1": "1 57800U 23137A   26167.86068053  .00004252  00000+0  23287-3 0  9991",
      "line2": "2 57800  31.0033   1.7169 0007950 320.5096  39.4963 15.12464488152816",
      "category": "satellite"
    },
    {
      "id": "59588",
      "name": "ACS3",
      "noradId": 59588,
      "line1": "1 59588U 24077B   26167.70310522  .00023988  00000+0  17722-1 0  9996",
      "line2": "2 59588  97.1682  86.5996 0074218  63.7552 297.1218 13.93938143107971",
      "category": "satellite"
    },
    {
      "id": "66004",
      "name": "CZ-8A R/B",
      "noradId": 66004,
      "line1": "1 66004U 25231K   26167.84241338 -.00000042  00000+0  43459-4 0  9999",
      "line2": "2 66004  50.0056  40.7829 0116492 222.7910 136.3892 14.30154841 34897",
      "category": "satellite"
    }
  ]
}