OBJECT_NAME,OBJECT_ID,EPOCH,MEAN_MOTION,ECCENTRICITY,INCLINATION,RA_OF_ASC_NODE,ARG_OF_PERICENTER,MEAN_ANOMALY,EPHEMERIS_TYPE,CLASSIFICATION_TYPE,NORAD_CAT_ID,ELEMENT_SET_NO,REV_AT_EPOCH,BSTAR,MEAN_MOTION_DOT,MEAN_MOTION_DDOT
COSMO-SKYMED 1,2007-023A,2026-06-16T19:13:11.203104,14.97097508,.0001303,97.8842,359.6530,100.0369,260.0999,0,U,31598,999,2973,.19848E-3,.2229E-4,0
COSMOS 2428,2007-029A,2026-06-16T20:39:07.518816,14.12928171,.0007137,70.9369,355.1636,135.5925,224.5769,0,U,31792,999,97810,-.36843E-4,-.117E-5,0
SL-16 R/B,2007-029B,2026-06-16T18:19:08.015808,14.14854962,.0002318,70.9768,324.1191,261.6537,196.7820,0,U,31793,999,97938,.8563E-4,.117E-5,0
KORONAS-FOTON,2009-003A,2026-06-16T18:06:55.329120,15.45715063,.0011631,82.4283,172.7106,148.9021,211.2918,0,U,33504,999,96103,.18626E-3,.9057E-4,0
CZ-2C R/B,2011-030B,2026-06-16T18:30:12.219264,14.81470666,.0053091,97.8655,123.1646,29.3113,32.7821,0,U,37731,999,80476,.1411E-3,.1077E-4,0
H-2A R/B,2012-025E,2026-06-16T16:31:38.419968,14.95718425,.0043673,98.4831,142.7932,350.9948,9.0483,0,U,38341,999,76301,.24355E-3,.2693E-4,0
SHIJIAN-16 (SJ-16),2013-057A,2026-06-16T21:42:08.083872,14.92606511,.0016839,74.9725,357.2191,231.4892,128.4787,0,U,39358,999,68630,.95829E-4,.959E-5,0
SL-4 R/B,2014-021B,2026-06-16T14:38:39.541632,15.41943923,.0091248,51.6035,213.5984,103.9001,257.2154,0,U,39679,999,67152,.1835E-3,.8759E-4,0
ALOS-2,2014-029A,2026-06-16T20:50:50.413920,14.79468481,.0001617,97.9226,265.0362,90.7557,269.3840,0,U,39766,999,65153,.10884E-3,.761E-5,0
YAOGAN-29,2015-069A,2026-06-16T20:10:16.785120,14.83085621,.0002622,98.0023,196.4725,55.7722,304.3739,0,U,41038,999,57057,.82697E-4,.619E-5,0
ASTRO-H (HITOMI),2016-012A,2026-06-16T10:32:55.366944,15.10508022,.00097749,30.9997,79.0158,246.4113,113.5499,0,U,41337,999,56717,.1182573E-3,.2094E-4,0
HXMT (HUIYAN),2017-034A,2026-06-16T17:45:08.308800,15.18475330,.0030528,43.0125,185.5330,144.2185,216.0717,0,U,42758,999,49759,.11695E-3,.2236E-4,0
SAOCOM 1A,2018-076A,2026-06-16T19:09:48.915648,14.82147183,.0001566,97.8875,354.5525,79.6696,280.4694,0,U,43641,999,41604,.23522E-4,.135E-5,0
H-2A R/B,2018-084L,2026-06-16T19:18:24.359904,15.45142029,.0023539,98.8574,46.6107,41.9564,318.3478,0,U,43682,999,42106,.35711E-3,.16992E-3,0
SAOCOM 1B,2020-059A,2026-06-16T19:54:40.300704,14.82148324,.0001643,97.8879,353.6784,84.7794,275.3607,0,U,46265,999,31343,.94551E-4,.7E-5,0
CSS (TIANHE),2021-035A,2026-06-16T20:22:39.093312,15.60797895,.000746,41.4698,324.0596,74.3419,285.8242,0,U,48274,999,29311,.23909E-3,.20239E-3,0
COSMOS 2550,2021-056A,2026-06-16T21:26:53.120832,15.33831761,.0008385,67.1434,100.7939,268.5792,91.4402,0,U,48865,999,27867,.22424E-3,.7193E-4,0
CZ-2C R/B,2022-058K,2026-06-16T06:46:43.305888,15.61795532,.0032543,50.1832,168.2256,264.2442,95.4821,0,U,52794,999,22550,.34419E-3,.30822E-3,0
CZ-2C R/B,2022-132E,2026-06-16T18:29:21.200064,15.71454106,.0016056,97.2897,174.7757,85.6762,274.6336,0,U,54039,999,20588,.37875E-3,.48706E-3,0
GSLV R/B,2022-138AN,2026-06-16T20:24:37.500192,14.97256158,.0022817,87.3806,133.0973,144.7444,215.5303,0,U,54149,999,19876,.21611E-3,.2544E-4,0
XRISM,2023-137A,2026-06-16T20:39:22.797792,15.12464488,.000795,31.0033,1.7169,320.5096,39.4963,0,U,57800,999,15281,.23287E-3,.4252E-4,0
ACS3,2024-077B,2026-06-16T16:52:28.291008,13.93938143,.0074218,97.1682,86.5996,63.7552,297.1218,0,U,59588,999,10797,.17722E-1,.23988E-3,0
CZ-8A R/B,2025-231K,2026-06-16T20:13:04.516032,14.30154841,.0116492,50.0056,40.7829,222.7910,136.3892,0,U,66004,999,3489,.43459E-4,-.42E-6,0
SZ-21 MODULE,2025-246C,2026-06-15T16:41:15.002592,15.76287551,.00064925,41.4723,316.6164,340.9855,19.0747,0,U,66515,999,3350,.25046654E-3,.4052E-3,0
